H1 CPF  1  DLR 2021 08 20 10  7322 technosat            
H2  1704205 6203    42829 2021 08 20 00 00 00 2021 08 27 00 00 00    60 1 1  0 0 0
H9
10 0 59449  28800.000000  0        -31454.915        912848.552      -6910598.507
10 0 59449  28860.000000  0        419902.874        982446.756      -6888202.375
10 0 59449  28920.000000  0        870073.811       1043980.475      -6836706.963
10 0 59449  28980.000000  0       1317097.650       1097209.943      -6756325.644
10 0 59449  29040.000000  0       1759024.717       1141947.085      -6647392.793
10 0 59449  29100.000000  0       2193924.317       1178056.171      -6510362.599
10 0 59449  29160.000000  0       2619893.226       1205454.228      -6345807.350
10 0 59449  29220.000000  0       3035064.019       1224111.126      -6154415.131
10 0 59449  29280.000000  0       3437613.182       1234049.381      -5936987.175
10 0 59449  29340.000000  0       3825769.198       1235343.699      -5694434.830
10 0 59449  29400.000000  0       4197820.471       1228120.222      -5427776.000
10 0 59449  29460.000000  0       4552123.051       1212555.505      -5138131.175
10 0 59449  29520.000000  0       4887108.179       1188875.244      -4826718.930
10 0 59449  29580.000000  0       5201289.454       1157352.699      -4494850.958
10 0 59449  29640.000000  0       5493269.701       1118306.859      -4143926.747
10 0 59449  29700.000000  0       5761747.493       1072100.354      -3775427.805
10 0 59449  29760.000000  0       6005523.258       1019137.099      -3390911.517
10 0 59449  29820.000000  0       6223504.982        959859.725      -2992004.661
10 0 59449  29880.000000  0       6414713.486        894746.790      -2580396.527
10 0 59449  29940.000000  0       6578287.191        824309.788      -2157831.692
10 0 59449  30000.000000  0       6713486.330        749089.949      -1726102.488
10 0 59449  30060.000000  0       6819696.539        669654.839      -1287041.208
10 0 59449  30120.000000  0       6896431.856        586594.829       -842512.148
10 0 59449  30180.000000  0       6943337.112        500519.445       -394403.448
10 0 59449  30240.000000  0       6960189.659        412053.649         55381.135
10 0 59449  30300.000000  0       6946900.575        321834.009        504930.538
10 0 59449  30360.000000  0       6903515.151        230504.738        952334.845
10 0 59449  30420.000000  0       6830212.688        138713.743       1395693.629
10 0 59449  30480.000000  0       6727305.715         47108.667       1833124.344
10 0 59449  30540.000000  0       6595238.413        -43667.037       2262770.623
10 0 59449  30600.000000  0       6434584.454       -132978.011       2682810.297
10 0 59449  30660.000000  0       6246044.290       -220200.878       3091463.328
10 0 59449  30720.000000  0       6030441.683       -304728.031       3486999.493
10 0 59449  30780.000000  0       5788719.742       -385971.188       3867745.661
10 0 59449  30840.000000  0       5521936.630       -463364.870       4232092.902
10 0 59449  30900.000000  0       5231260.544       -536369.848       4578503.383
10 0 59449  30960.000000  0       4917964.200       -604476.353       4905516.727
10 0 59449  31020.000000  0       4583418.899       -667207.081       5211756.103
10 0 59449  31080.000000  0       4229088.106       -724119.957       5495933.758
10 0 59449  31140.000000  0       3856520.858       -774810.703       5756856.179
10 0 59449  31200.000000  0       3467344.758       -818915.210       5993428.943
10 0 59449  31260.000000  0       3063258.608       -856111.672       6204661.024
10 0 59449  31320.000000  0       2646024.873       -886122.448       6389668.615
10 0 59449  31380.000000  0       2217461.961       -908715.703       6547678.621
10 0 59449  31440.000000  0       1779436.197       -923706.785       6678031.700
10 0 59449  31500.000000  0       1333853.612       -930959.350       6780184.763
10 0 59449  31560.000000  0        882651.626       -930386.187       6853712.975
10 0 59449  31620.000000  0        427790.713       -921949.770       6898311.297
10 0 59449  31680.000000  0        -28754.046       -905662.573       6913795.605
10 0 59449  31740.000000  0       -485001.405       -881587.102       6900103.286
10 0 59449  31800.000000  0       -938972.405       -849835.661       6857293.482
10 0 59449  31860.000000  0      -1388698.841       -810569.826       6785546.801
10 0 59449  31920.000000  0      -1832231.638       -763999.640       6685164.578
10 0 59449  31980.000000  0      -2267649.142       -710382.569       6556567.715
10 0 59449  32040.000000  0      -2693065.342       -650022.189       6400295.099
10 0 59449  32100.000000  0      -3106637.999       -583266.579       6217001.573
10 0 59449  32160.000000  0      -3506576.635       -510506.507       6007455.407
10 0 59449  32220.000000  0      -3891150.331       -432173.376       5772535.334
10 0 59449  32280.000000  0      -4258695.333       -348736.899       5513227.119
10 0 59449  32340.000000  0      -4607622.393       -260702.555       5230619.639
10 0 59449  32400.000000  0      -4936423.784       -168608.855       4925900.513
10 0 59449  32460.000000  0      -5243680.017        -73024.379       4600351.365
10 0 59449  32520.000000  0      -5528066.243         25455.386       4255342.589
10 0 59449  32580.000000  0      -5788358.145        126211.373       3892327.726
10 0 59449  32640.000000  0      -6023437.479        228604.426       3512837.552
10 0 59449  32700.000000  0      -6232297.213        331978.945       3118473.758
10 0 59449  32760.000000  0      -6414046.180        435666.667       2710902.236
10 0 59449  32820.000000  0      -6567913.174        538990.552       2291846.042
10 0 59449  32880.000000  0      -6693250.517        641268.716       1863078.102
10 0 59449  32940.000000  0      -6789537.103        741818.432       1426413.627
10 0 59449  33000.000000  0      -6856380.806        839960.169        983702.278
10 0 59449  33060.000000  0      -6893520.283        935021.647        536820.173
10 0 59449  33120.000000  0      -6900826.145       1026341.878         87661.710
10 0 59449  33180.000000  0      -6878301.451       1113275.169       -361868.689
10 0 59449  33240.000000  0      -6826081.564       1195195.034       -809864.877
10 0 59449  33300.000000  0      -6744433.362       1271498.008      -1254427.267
10 0 59449  33360.000000  0      -6633753.861       1341607.343      -1693671.036
10 0 59449  33420.000000  0      -6494568.311       1404976.628      -2125734.307
10 0 59449  33480.000000  0      -6327527.608       1461093.288      -2548786.327
10 0 59449  33540.000000  0      -6133404.998       1509481.825      -2961035.467
10 0 59449  33600.000000  0      -5913092.204       1549706.816      -3360736.936
10 0 59449  33660.000000  0      -5667595.042       1581375.739      -3746200.235
10 0 59449  33720.000000  0      -5398028.528       1604141.557      -4115796.311
10 0 59449  33780.000000  0      -5105611.529       1617705.055      -4467964.426
10 0 59449  33840.000000  0      -4791660.940       1621816.936      -4801218.698
10 0 59449  33900.000000  0      -4457585.448       1616279.617      -5114154.233
10 0 59449  33960.000000  0      -4104878.959       1600948.758      -5405452.865
10 0 59449  34020.000000  0      -3735113.722       1575734.526      -5673888.518
10 0 59449  34080.000000  0      -3349933.144       1540602.549      -5918332.195
10 0 59449  34140.000000  0      -2951044.329       1495574.549      -6137756.507
10 0 59449  34200.000000  0      -2540210.414       1440728.718      -6331239.788
10 0 59449  34260.000000  0      -2119242.619       1376199.834      -6497969.763
10 0 59449  34320.000000  0      -1689992.184       1302179.045      -6637246.629
10 0 59449  34380.000000  0      -1254342.294       1218913.344      -6748485.759
10 0 59449  34440.000000  0       -814199.865       1126704.759      -6831219.974
10 0 59449  34500.000000  0       -371487.271       1025909.288      -6885101.303
10 0 59449  34560.000000  0         71865.847        916935.572      -6909902.330
10 0 59449  34620.000000  0        513930.833        800243.270      -6905517.231
10 0 59449  34680.000000  0        952788.393        676341.130      -6871962.345
10 0 59449  34740.000000  0       1386536.947        545784.799      -6809376.084
10 0 59449  34800.000000  0       1813300.752        409174.368      -6718018.369
10 0 59449  34860.000000  0       2231237.906        267151.669      -6598269.674
10 0 59449  34920.000000  0       2638548.287        120397.379      -6450629.667
10 0 59449  34980.000000  0       3033481.392        -30372.150      -6275715.280
10 0 59449  35040.000000  0       3414343.838       -184408.323      -6074258.262
10 0 59449  35100.000000  0       3779506.632       -340933.907      -5847102.362
10 0 59449  35160.000000  0       4127412.217       -499146.789      -5595200.083
10 0 59449  35220.000000  0       4456581.308       -658223.962      -5319609.043
10 0 59449  35280.000000  0       4765619.471       -817325.717      -5021487.771
10 0 59449  35340.000000  0       5053223.273       -975599.934      -4702091.032
10 0 59449  35400.000000  0       5318186.054      -1132186.491      -4362764.729
10 0 59449  35460.000000  0       5559403.283      -1286221.795      -4004940.413
10 0 59449  35520.000000  0       5775877.502      -1436843.381      -3630129.358
10 0 59449  35580.000000  0       5966722.762      -1583194.578      -3239916.251
10 0 59449  35640.000000  0       6131168.585      -1724429.198      -2835952.526
10 0 59449  35700.000000  0       6268563.392      -1859716.247      -2419949.351
10 0 59449  35760.000000  0       6378377.357      -1988244.596      -1993670.279
10 0 59449  35820.000000  0       6460204.675      -2109227.572      -1558923.664
10 0 59449  35880.000000  0       6513765.262      -2221907.471      -1117554.837
10 0 59449  35940.000000  0       6538905.854      -2325559.963       -671438.081
99
